[{"OBJECT_NAME":"STARLINK-31530","OBJECT_ID":"2024-057C","EPOCH":"2026-03-09T22:00:01.999584","MEAN_MOTION":15.40184743,"ECCENTRICITY":0.00128486,"INCLINATION":42.9973,"RA_OF_ASC_NODE":183.7666,"ARG_OF_PERICENTER":5.4945,"MEAN_ANOMALY":123.5141,"EPHEMERIS_TYPE":0,"CLASSIFICATION_TYPE":"U","NORAD_CAT_ID":59322,"ELEMENT_SET_NO":999,"REV_AT_EPOCH":587,"BSTAR":0.0037392027,"MEAN_MOTION_DOT":0.00156829,"MEAN_MOTION_DDOT":0},{"OBJECT_NAME":"PEGASUS DEB","OBJECT_ID":"1994-029AG","EPOCH":"2026-03-09T11:16:42.963744","MEAN_MOTION":15.37636263,"ECCENTRICITY":0.0031206,"INCLINATION":82.0362,"RA_OF_ASC_NODE":86.2933,"ARG_OF_PERICENTER":155.6019,"MEAN_ANOMALY":204.671,"EPHEMERIS_TYPE":0,"CLASSIFICATION_TYPE":"U","NORAD_CAT_ID":23986,"ELEMENT_SET_NO":999,"REV_AT_EPOCH":61542,"BSTAR":0.00061808813,"MEAN_MOTION_DOT":0.00023279,"MEAN_MOTION_DDOT":0}]
